{
    "links": {
        "self": "http://www.neowsapp.com/rest/v1/neo/3785711?api_key=iIulBulltgU6a56xZRHN4H3l9WmuAYTsLGpBGhQ2"
    },
    "id": "3785711",
    "neo_reference_id": "3785711",
    "name": "(2017 SE33)",
    "designation": "2017 SE33",
    "nasa_jpl_url": "http://ssd.jpl.nasa.gov/sbdb.cgi?sstr=3785711",
    "absolute_magnitude_h": 27.7,
    "estimated_diameter": {
        "kilometers": {
            "estimated_diameter_min": 0.0076657557,
            "estimated_diameter_max": 0.0171411509
        },
        "meters": {
            "estimated_diameter_min": 7.6657557353,
            "estimated_diameter_max": 17.1411509231
        },
        "miles": {
            "estimated_diameter_min": 0.0047632783,
            "estimated_diameter_max": 0.0106510141
        },
        "feet": {
            "estimated_diameter_min": 25.1501180466,
            "estimated_diameter_max": 56.2373735944
        }
    },
    "is_potentially_hazardous_asteroid": false,
    "close_approach_data": [
        {
            "close_approach_date": "2015-08-03",
            "close_approach_date_full": "2015-Aug-03 22:12",
            "epoch_date_close_approach": 1438639920000,
            "relative_velocity": {
                "kilometers_per_second": "4.2902742351",
                "kilometers_per_hour": "15444.9872464403",
                "miles_per_hour": "9596.9144365451"
            },
            "miss_distance": {
                "astronomical": "1.3791648955",
                "lunar": "536.4951443495",
                "kilometers": "206320130.745572585",
                "miles": "128201384.468108273"
            },
            "orbiting_body": "Juptr"
        },
        {
            "close_approach_date": "2017-09-19",
            "close_approach_date_full": "2017-Sep-19 00:58",
            "epoch_date_close_approach": 1505782680000,
            "relative_velocity": {
                "kilometers_per_second": "8.896427323",
                "kilometers_per_hour": "32027.1383627437",
                "miles_per_hour": "19900.4182787837"
            },
            "miss_distance": {
                "astronomical": "0.0184692576",
                "lunar": "7.1845412064",
                "kilometers": "2762961.597441312",
                "miles": "1716824.7264296256"
            },
            "orbiting_body": "Earth"
        },
        {
            "close_approach_date": "2137-07-11",
            "close_approach_date_full": "2137-Jul-11 21:33",
            "epoch_date_close_approach": 5286634380000,
            "relative_velocity": {
                "kilometers_per_second": "19.7841868445",
                "kilometers_per_hour": "71223.0726402925",
                "miles_per_hour": "44255.2475525195"
            },
            "miss_distance": {
                "astronomical": "0.4007038054",
                "lunar": "155.8737803006",
                "kilometers": "59944435.788734498",
                "miles": "37247745.1982241524"
            },
            "orbiting_body": "Earth"
        }
    ],
    "orbital_data": {
        "orbit_id": "4",
        "orbit_determination_date": "2019-08-16 05:29:37",
        "first_observation_date": "2017-09-20",
        "last_observation_date": "2017-09-27",
        "data_arc_in_days": 7,
        "observations_used": 11,
        "orbit_uncertainty": "8",
        "minimum_orbit_intersection": ".00349487",
        "jupiter_tisserand_invariant": "3.099",
        "epoch_osculation": "2458021.5",
        "eccentricity": ".6169145014211551",
        "semi_major_axis": "2.626657161672713",
        "inclination": "1.010895337419538",
        "ascending_node_longitude": "176.983477759785",
        "orbital_period": "1554.903759738397",
        "perihelion_distance": "1.006234268375085",
        "perihelion_argument": "163.0327582476918",
        "aphelion_distance": "4.247080054970342",
        "perihelion_time": "2458002.950239427484",
        "mean_anomaly": "4.294744137237972",
        "mean_motion": ".2315255833329311",
        "equinox": "J2000",
        "orbit_class": {
            "orbit_class_type": "APO",
            "orbit_class_description": "Near-Earth asteroid orbits which cross the Earth’s orbit similar to that of 1862 Apollo",
            "orbit_class_range": "a (semi-major axis) > 1.0 AU; q (perihelion) < 1.017 AU"
        }
    },
    "is_sentry_object": false
}